{
  "type": "FeatureCollection",
  "features": [
    {
      "type": "Feature",
      "properties": {
        "norad_id": 34434,
        "name": "COSMOS 2251 DEB",
        "group": "cosmos-2251-debris",
        "lat": 74.04481825438309,
        "lon": 85.81435717468511,
        "alt_km": 762.9758828284675,
        "timestamp": "2025-12-22T05:49:03.895592+00:00",
        "meta_object_name": "COSMOS 2251 DEB",
        "meta_object_id": "1993-036SB",
        "meta_epoch": "2025-12-21T19:19:23.758176",
        "meta_mean_motion": 13.89859486,
        "meta_eccentricity": 0.0273841,
        "meta_inclination": 74.0621,
        "meta_ra_of_asc_node": 354.7068,
        "meta_arg_of_pericenter": 129.8453,
        "meta_mean_anomaly": 295.5498,
        "meta_ephemeris_type": 0,
        "meta_classification_type": "U",
        "meta_norad_cat_id": 34434,
        "meta_element_set_no": 999,
        "meta_rev_at_epoch": 84092,
        "meta_bstar": 0.0015956,
        "meta_mean_motion_dot": 2.634e-05,
        "meta_mean_motion_ddot": 0,
        "tle_line1": "1 34434U 93036SB  25355.80513609  .00002634  00000+0  15956-2 0  9993",
        "tle_line2": "2 34434  74.0621 354.7068 0273841 129.8453 295.5498 13.89859486840926"
      },
      "geometry": {
        "type": "Point",
        "coordinates": [
          85.81435717468511,
          74.04481825438309
        ]
      }
    },
    {
      "type": "Feature",
      "properties": {
        "norad_id": 34446,
        "name": "COSMOS 2251 DEB",
        "group": "cosmos-2251-debris",
        "lat": 25.747653847792048,
        "lon": -148.47054436346784,
        "alt_km": 693.1181141240004,
        "timestamp": "2025-12-22T05:49:03.895602+00:00",
        "meta_object_name": "COSMOS 2251 DEB",
        "meta_object_id": "1993-036SP",
        "meta_epoch": "2025-12-21T09:14:03.434208",
        "meta_mean_motion": 14.49361872,
        "meta_eccentricity": 0.00507278,
        "meta_inclination": 74.0417,
        "meta_ra_of_asc_node": 41.0696,
        "meta_arg_of_pericenter": 177.052,
        "meta_mean_anomaly": 183.095,
        "meta_ephemeris_type": 0,
        "meta_classification_type": "U",
        "meta_norad_cat_id": 34446,
        "meta_element_set_no": 999,
        "meta_rev_at_epoch": 88819,
        "meta_bstar": 0.00010058627,
        "meta_mean_motion_dot": 3.62e-06,
        "meta_mean_motion_ddot": 0,
        "tle_line1": "1 34446U 93036SP  25355.38476197  .00000362  00000+0  10059-3 0  9995",
        "tle_line2": "2 34446  74.0417  41.0696 0050727 177.0520 183.0950 14.49361872888190"
      },
      "geometry": {
        "type": "Point",
        "coordinates": [
          -148.47054436346784,
          25.747653847792048
        ]
      }
    },
    {
      "type": "Feature",
      "properties": {
        "norad_id": 34449,
        "name": "COSMOS 2251 DEB",
        "group": "cosmos-2251-debris",
        "lat": 60.561113631092454,
        "lon": 81.87515775709832,
        "alt_km": 560.558799013138,
        "timestamp": "2025-12-22T05:49:03.895613+00:00",
        "meta_object_name": "COSMOS 2251 DEB",
        "meta_object_id": "1993-036SS",
        "meta_epoch": "2025-12-21T14:01:22.624032",
        "meta_mean_motion": 14.9530995,
        "meta_eccentricity": 0.0022739,
        "meta_inclination": 74.0321,
        "meta_ra_of_asc_node": 52.7148,
        "meta_arg_of_pericenter": 89.8054,
        "meta_mean_anomaly": 34.0385,
        "meta_ephemeris_type": 0,
        "meta_classification_type": "U",
        "meta_norad_cat_id": 34449,
        "meta_element_set_no": 999,
        "meta_rev_at_epoch": 88825,
        "meta_bstar": 0.0018531,
        "meta_mean_motion_dot": 0.00020555,
        "meta_mean_motion_ddot": 0,
        "tle_line1": "1 34449U 93036SS  25355.58428963  .00020555  00000+0  18531-2 0  9996",
        "tle_line2": "2 34449  74.0321  52.7148 0022739  89.8054  34.0385 14.95309950888256"
      },
      "geometry": {
        "type": "Point",
        "coordinates": [
          81.87515775709832,
          60.561113631092454
        ]
      }
    },
    {
      "type": "Feature",
      "properties": {
        "norad_id": 34451,
        "name": "COSMOS 2251 DEB",
        "group": "cosmos-2251-debris",
        "lat": 56.31819461489693,
        "lon": 94.11216272571062,
        "alt_km": 558.1480795064444,
        "timestamp": "2025-12-22T05:49:03.895623+00:00",
        "meta_object_name": "COSMOS 2251 DEB",
        "meta_object_id": "1993-036SU",
        "meta_epoch": "2025-12-21T07:04:57.359712",
        "meta_mean_motion": 14.96011908,
        "meta_eccentricity": 0.0023754,
        "meta_inclination": 74.0465,
        "meta_ra_of_asc_node": 70.6049,
        "meta_arg_of_pericenter": 85.0662,
        "meta_mean_anomaly": 275.3234,
        "meta_ephemeris_type": 0,
        "meta_classification_type": "U",
        "meta_norad_cat_id": 34451,
        "meta_element_set_no": 999,
        "meta_rev_at_epoch": 88763,
        "meta_bstar": 0.0019638,
        "meta_mean_motion_dot": 0.00022196,
        "meta_mean_motion_ddot": 0,
        "tle_line1": "1 34451U 93036SU  25355.29510833  .00022196  00000+0  19638-2 0  9997",
        "tle_line2": "2 34451  74.0465  70.6049 0023754  85.0662 275.3234 14.96011908887636"
      },
      "geometry": {
        "type": "Point",
        "coordinates": [
          94.11216272571062,
          56.31819461489693
        ]
      }
    },
    {
      "type": "Feature",
      "properties": {
        "norad_id": 34452,
        "name": "COSMOS 2251 DEB",
        "group": "cosmos-2251-debris",
        "lat": -22.82409923386743,
        "lon": 156.2276335419335,
        "alt_km": 542.2202731598891,
        "timestamp": "2025-12-22T05:49:03.895633+00:00",
        "meta_object_name": "COSMOS 2251 DEB",
        "meta_object_id": "1993-036SV",
        "meta_epoch": "2025-12-21T14:33:50.213088",
        "meta_mean_motion": 15.11896714,
        "meta_eccentricity": 0.0064823,
        "meta_inclination": 74.032,
        "meta_ra_of_asc_node": 164.4646,
        "meta_arg_of_pericenter": 238.7973,
        "meta_mean_anomaly": 238.9314,
        "meta_ephemeris_type": 0,
        "meta_classification_type": "U",
        "meta_norad_cat_id": 34452,
        "meta_element_set_no": 999,
        "meta_rev_at_epoch": 90796,
        "meta_bstar": 0.0007039,
        "meta_mean_motion_dot": 0.00012659,
        "meta_mean_motion_ddot": 0,
        "tle_line1": "1 34452U 93036SV  25355.60683117  .00012659  00000+0  70390-3 0  9995",
        "tle_line2": "2 34452  74.0320 164.4646 0064823 238.7973 238.9314 15.11896714907963"
      },
      "geometry": {
        "type": "Point",
        "coordinates": [
          156.2276335419335,
          -22.82409923386743
        ]
      }
    },
    {
      "type": "Feature",
      "properties": {
        "norad_id": 34454,
        "name": "COSMOS 2251 DEB",
        "group": "cosmos-2251-debris",
        "lat": 33.963507997112124,
        "lon": -88.76251287671884,
        "alt_km": 753.0884774806273,
        "timestamp": "2025-12-22T05:49:03.895644+00:00",
        "meta_object_name": "COSMOS 2251 DEB",
        "meta_object_id": "1993-036SX",
        "meta_epoch": "2025-12-21T19:38:29.894784",
        "meta_mean_motion": 14.38821876,
        "meta_eccentricity": 0.0035876,
        "meta_inclination": 74.0587,
        "meta_ra_of_asc_node": 260.9179,
        "meta_arg_of_pericenter": 321.6434,
        "meta_mean_anomaly": 38.217,
        "meta_ephemeris_type": 0,
        "meta_classification_type": "U",
        "meta_norad_cat_id": 34454,
        "meta_element_set_no": 999,
        "meta_rev_at_epoch": 88198,
        "meta_bstar": 0.00018305,
        "meta_mean_motion_dot": 5.41e-06,
        "meta_mean_motion_ddot": 0,
        "tle_line1": "1 34454U 93036SX  25355.81840156  .00000541  00000+0  18305-3 0  9993",
        "tle_line2": "2 34454  74.0587 260.9179 0035876 321.6434  38.2170 14.38821876881982"
      },
      "geometry": {
        "type": "Point",
        "coordinates": [
          -88.76251287671884,
          33.963507997112124
        ]
      }
    },
    {
      "type": "Feature",
      "properties": {
        "norad_id": 34459,
        "name": "COSMOS 2251 DEB",
        "group": "cosmos-2251-debris",
        "lat": 16.504699735556333,
        "lon": 52.77355293300343,
        "alt_km": 1002.0984554857996,
        "timestamp": "2025-12-22T05:49:03.895654+00:00",
        "meta_object_name": "COSMOS 2251 DEB",
        "meta_object_id": "1993-036TC",
        "meta_epoch": "2025-12-21T03:18:49.772448",
        "meta_mean_motion": 14.00511873,
        "meta_eccentricity": 0.01921053,
        "meta_inclination": 74.0786,
        "meta_ra_of_asc_node": 239.5333,
        "meta_arg_of_pericenter": 307.4299,
        "meta_mean_anomaly": 50.9486,
        "meta_ephemeris_type": 0,
        "meta_classification_type": "U",
        "meta_norad_cat_id": 34459,
        "meta_element_set_no": 999,
        "meta_rev_at_epoch": 85829,
        "meta_bstar": 0.00029726073,
        "meta_mean_motion_dot": 4.93e-06,
        "meta_mean_motion_ddot": 0,
        "tle_line1": "1 34459U 93036TC  25355.13807607  .00000493  00000+0  29726-3 0  9992",
        "tle_line2": "2 34459  74.0786 239.5333 0192105 307.4299  50.9486 14.00511873858293"
      },
      "geometry": {
        "type": "Point",
        "coordinates": [
          52.77355293300343,
          16.504699735556333
        ]
      }
    }
  ]
}